#dP2018  7 11  0  0  0.00000000      96 __u+U ITR00 FIT  IAC
## 2009 259200.00000000   900.00000000 58310 0.0000000000000
+   85   C01C02C03C04C05C06C07C08C09C10C11C12C13C14E01E02E03
+        E04E05E07E08E09E11E12E14E18E19E24E26E30G01G02G03G05
+        G06G07G08G09G10G11G12G13G14G15G16G17G18G19G20G21G22
+        G23G24G25G26G27G28G29G30G31G32J01R01R02R03R04R05R07
+        R08R09R10R11R13R14R15R16R17R18R19R20R21R22R23R24R26
++        12 12 12 13 12  9  9  9  8  8  8  8  9  8  6  6  6
++         7  7  6  6  7  7  6  7  7  6  6  6  6  3  3  3  3
++         3  3  3  3  3  3  3  3  3  3  3  3  3  3  3  3  3
++         3  3  3  3  3  3  3  3  3  3 10  5  5  5  5  6  6
++         6  6  5  5  5  5  5  6  5  5  5  5  5  5  5  6  8
%c M  cc GPS ccc cccc cccc cccc cccc ccccc ccccc ccccc ccccc
%c cc cc ccc ccc cccc cccc cccc cccc ccccc ccccc ccccc ccccc
%f  0.0000000  0.000000000  0.00000000000  0.000000000000000
%f  0.0000000  0.000000000  0.00000000000  0.000000000000000
%i    0    0    0    0      0      0      0      0         0
%i    0    0    0    0      0      0      0      0         0
/* INFORMATION & ANALYSIS CENTER (IAC) OF MCC   (RAPID DATA)
/* S/V CLOCKS ARE ALIGNED TO GPS & GLONASS TIME RESPECTIVELY
/* USING THE BROADCAST EPHEMERIS                            
/* PCV:IGS14_2000 OL/AL:FES2004  NONE     YN ORB:CoN CLK:CoN
*  2018 07 11 10 15  0.00000000
PC01 -32346.707935  27026.867391   -687.862936    325.145636
PC02   4370.835672  41909.785422   1412.305794    -22.920459
PC03 -14817.989511  39502.069899    113.680270   -278.324283
PC04 -39599.857546  14453.683097   -106.339021   -270.428950
PC05  21904.079659  36021.872838   1074.991146    309.348223
PC06 -16605.091675  38421.897302   6670.523265     94.330278
PC07 -10335.798310  24490.331223 -32534.746893     72.194860
PC08 -23212.739822  22802.057225  26754.224234    432.826600
PC09  -8461.671628  40758.804150  -7511.425734     40.147679
PC10   5493.925688  32407.174812 -26065.332988   -377.458504
PC11  -5250.327911  20688.484930  17987.216439   -586.601043
PC12 -19938.159341  19411.337055   1344.906070    511.218392
PC13  -9878.671184  25097.626167  32353.565871   -172.855636
PC14   2120.094221  27282.849778   5662.272957    217.207001
PE01 -11599.403666 -22242.363461  15724.102331   -388.240036
PE02  11614.776547  22238.242730 -15706.050234     19.091016
PE03   2002.869782  28221.372046  -8670.068317    -53.171238
PE04 -13718.822604 -14255.764452  22029.175814    -72.939333
PE05 -10930.365265  25700.509474   9817.779087    230.742564
PE07  17415.556913  -8167.747196 -22483.616134     -0.067226
PE08  13710.097887  14105.326548 -22102.749846   6546.437969
PE09 -17222.236968   8277.713353  22617.855744   6738.241930
PE11 -28049.122051   8802.704674  -3559.294384   2284.769344
PE12 -21018.832164  -5947.061210 -19986.115591   4576.648660
PE14   2477.748509 -25213.975859 -15415.102820   6553.134069
PE18 -14393.110307  23411.589064   2958.948195   6067.685199
PE19   -798.746535 -28742.488870   7030.995600     24.076950
PE24 -22417.746714  -1707.707958 -19261.397877   6606.920198
PE26  18676.261531 -17940.558421 -14339.889714   5722.628850
PE30  24071.395331  17031.424654   2552.941826   5687.475364
PG01 -13764.682815 -13318.055213 -18688.026337    -64.662396
PG02  -9750.136406  14719.836302  20340.297110     60.993499
PG03 -13470.938547 -22869.138764   1691.207285    103.856684
PG05  -1436.055000  20965.993883  16010.001085     -4.778380
PG06 -23218.782164   6781.304129  11030.449977    388.234425
PG07 -25196.512433  -6210.389950   6935.896090    160.801055
PG08   2411.356930 -22378.726117 -13932.945277   -107.787616
PG09 -14467.527472  -5676.377112  21510.270473    513.886507
PG10  16118.374038  -1048.727910 -21067.560193    188.846806
PG11  -8517.102944 -14431.397439 -21157.954812   -730.553902
PG12   9189.688827  24884.124664  -2853.121966    321.717814
PG13 -11129.064353  22735.060740  -8141.687247    -92.564162
PG14  18209.647183 -18353.139856  -5348.950744    -97.607549
PG15   2130.138883  21393.206228 -15563.796439   -350.986815
PG16   3656.737855 -19813.901014  16922.123724     18.198315
PG17 -19228.679858  11428.251041 -13835.853988    -79.411126
PG18  -4132.624687 -15459.384708 -21685.527939     32.260323
PG19 -19130.913915  17369.443042  -6798.231607   -421.339662
PG20  19836.052629   7856.099128 -15991.075181    512.184999
PG21  26129.325109   2850.156991   4476.166551   -369.144581
PG22  -9245.289729 -24063.433744  -6205.440424   -454.172751
PG23  -7132.765669 -16209.229800  19968.930944   -214.659887
PG24   9964.569317  14534.868607 -20067.780645    -52.402030
PG25  17099.119442  17691.738090  10113.483252   -614.379223
PG26  10557.374574 -11901.628970  21239.862512    -87.446580
PG27  11663.602494 -23439.967952  -3618.274310    361.620127
PG28 -16003.478450  -3229.765928 -20320.519060    730.375139
PG29  12233.983849   8148.528220  22095.310557    416.823747
PG30 -26422.346081    262.313715  -3484.861640     51.960777
PG31  22431.474500  -7331.181119  12628.720343    108.515790
PG32  19008.586745 -11851.570348 -14159.159075   -477.452038
PJ01 -24632.144437  25721.808854  27672.068181   -184.661932
PR01   2607.269117 -24178.840862  -7717.538093     28.907836
PR02  -6393.198643 -21542.289822  12069.240731    319.119132
PR03 -10891.909938  -5663.207179  22398.807551    137.380663
PR04  -8827.116602  13936.425451  19482.992181    268.092696
PR05  -1447.625564  24869.777358   5458.964052    -38.220224
PR07  10881.619404   5280.782685 -22422.151038    -42.139470
PR08   9003.115306 -13308.472367 -19752.867395     22.324065
PR09  17484.490413  15312.239759 -10416.635900     17.525228
PR10  22840.223350   9168.959153   6506.405458     27.665905
PR11  15001.148568  -2939.326460  20418.146194    -34.245968
PR13 -17774.504463 -14932.235061  10571.703935    -12.383422
PR14 -22982.719363  -9106.407167  -6320.886742     28.963263
PR15 -17764.877606   -167.131182 -18254.527866    -13.011039
PR16   1000.034652  12486.525689 -22258.013991     96.719076
PR17 -19001.306278   2541.528618 -16805.882453    147.009528
PR18 -22059.364234  12803.139850  -1341.831833    202.515066
PR19 -13214.161741  15686.023835  15160.894690    -56.274102
PR20   4787.432355   9353.454272  23244.347633   -344.729729
PR21  19196.292430  -2896.207738  16553.644357      7.752193
PR22  21526.841312 -13532.497034   -806.696162    -55.494252
PR23   9490.214108 -15371.370435 -18020.463801    165.054273
PR24  -6026.891309  -8678.210427 -23247.365079   -168.737197
PR26   4120.679683   9816.775140  23185.419895     33.053059
EOF
